{"type": "FeatureCollection", "features": [ {"type": "Feature", "properties": {"norad_id": 41836, "name": "HIMAWARI-9", "group": "weather", "lat": 0.011329519536215919, "lon": -157.40012482006296, "alt_km": 35784.75572502122, "timestamp": "2025-12-11T22:43:46.913312+00:00", "meta": {"OBJECT_NAME": "HIMAWARI-9", "OBJECT_ID": "2016-064A", "EPOCH": "2025-12-11T07:19:57.783360", "MEAN_MOTION": 1.00270622, "ECCENTRICITY": 0.00011273, "INCLINATION": 0.0322, "RA_OF_ASC_NODE": 90.3935, "ARG_OF_PERICENTER": 181.1554, "MEAN_ANOMALY": 59.4836, "EPHEMERIS_TYPE": 0, "CLASSIFICATION_TYPE": "U", "NORAD_CAT_ID": 41836, "ELEMENT_SET_NO": 999, "REV_AT_EPOCH": 3332, "BSTAR": 0, "MEAN_MOTION_DOT": -2.68e-06, "MEAN_MOTION_DDOT": 0}, "tle": {"line1": "1 41836U 16064A   25345.30552990 -.00000268  00000+0  00000+0 0  9996", "line2": "2 41836   0.0322  90.3935 0001127 181.1554  59.4836  1.00270622 33322"}}, "geometry": {"type": "Point", "coordinates": [-157.40012482006296, 0.011329519536215919]}}, {"type": "Feature", "properties": {"norad_id": 41866, "name": "GOES 16", "group": "weather", "lat": -0.039187839272748715, "lon": -42.798971974005966, "alt_km": 35777.313548619735, "timestamp": "2025-12-11T22:43:46.913325+00:00", "meta": {"OBJECT_NAME": "GOES 16", "OBJECT_ID": "2016-071A", "EPOCH": "2025-12-11T13:00:47.924640", "MEAN_MOTION": 1.0027302, "ECCENTRICITY": 0.00033503, "INCLINATION": 0.0611, "RA_OF_ASC_NODE": 106.3459, "ARG_OF_PERICENTER": 157.3595, "MEAN_ANOMALY": 267.3227, "EPHEMERIS_TYPE": 0, "CLASSIFICATION_TYPE": "U", "NORAD_CAT_ID": 41866, "ELEMENT_SET_NO": 999, "REV_AT_EPOCH": 3322, "BSTAR": 0, "MEAN_MOTION_DOT": -8.4e-07, "MEAN_MOTION_DDOT": 0}, "tle": {"line1": "1 41866U 16071A   25345.54222135 -.00000084  00000+0  00000+0 0  9994", "line2": "2 41866   0.0611 106.3459 0003350 157.3595 267.3227  1.00273020 33223"}}, "geometry": {"type": "Point", "coordinates": [-42.798971974005966, -0.039187839272748715]}}, {"type": "Feature", "properties": {"norad_id": 41882, "name": "FENGYUN 4A", "group": "weather", "lat": 1.7903015190882123, "lon": -174.3544086268233, "alt_km": 35771.1755407657, "timestamp": "2025-12-11T22:43:46.913337+00:00", "meta": {"OBJECT_NAME": "FENGYUN 4A", "OBJECT_ID": "2016-077A", "EPOCH": "2025-12-11T14:06:04.173984", "MEAN_MOTION": 1.00270135, "ECCENTRICITY": 0.00049195, "INCLINATION": 1.8465, "RA_OF_ASC_NODE": 82.3913, "ARG_OF_PERICENTER": 146.0912, "MEAN_ANOMALY": 187.417, "EPHEMERIS_TYPE": 0, "CLASSIFICATION_TYPE": "U", "NORAD_CAT_ID": 41882, "ELEMENT_SET_NO": 999, "REV_AT_EPOCH": 3304, "BSTAR": 0, "MEAN_MOTION_DOT": -3.49e-06, "MEAN_MOTION_DDOT": 0}, "tle": {"line1": "1 41882U 16077A   25345.58754831 -.00000349  00000+0  00000+0 0  9999", "line2": "2 41882   1.8465  82.3913 0004919 146.0912 187.4170  1.00270135 33048"}}, "geometry": {"type": "Point", "coordinates": [-174.3544086268233, 1.7903015190882123]}}, {"type": "Feature", "properties": {"norad_id": 41884, "name": "CYGFM05", "group": "weather", "lat": -34.16649750569162, "lon": -51.40824014059475, "alt_km": 424.93400764298804, "timestamp": "2025-12-11T22:43:46.913349+00:00", "meta": {"OBJECT_NAME": "CYGFM05", "OBJECT_ID": "2016-078A", "EPOCH": "2025-12-11T12:19:44.236416", "MEAN_MOTION": 15.47567747, "ECCENTRICITY": 0.00099326, "INCLINATION": 34.9601, "RA_OF_ASC_NODE": 55.1392, "ARG_OF_PERICENTER": 172.194, "MEAN_ANOMALY": 187.8938, "EPHEMERIS_TYPE": 0, "CLASSIFICATION_TYPE": "U", "NORAD_CAT_ID": 41884, "ELEMENT_SET_NO": 999, "REV_AT_EPOCH": 49957, "BSTAR": 0.00058459472, "MEAN_MOTION_DOT": 0.00031157, "MEAN_MOTION_DDOT": 0}, "tle": {"line1": "1 41884U 16078A   25345.51370644  .00031157  00000+0  58459-3 0  9996", "line2": "2 41884  34.9601  55.1392 0009932 172.1940 187.8938 15.47567747499573"}}, "geometry": {"type": "Point", "coordinates": [-51.40824014059475, -34.16649750569162]}}, {"type": "Feature", "properties": {"norad_id": 41885, "name": "CYGFM04", "group": "weather", "lat": 25.981205921301868, "lon": 162.83017276705164, "alt_km": 409.04245660982633, "timestamp": "2025-12-11T22:43:46.913359+00:00", "meta": {"OBJECT_NAME": "CYGFM04", "OBJECT_ID": "2016-078B", "EPOCH": "2025-12-11T11:21:10.464192", "MEAN_MOTION": 15.50277122, "ECCENTRICITY": 0.00092904, "INCLINATION": 34.9354, "RA_OF_ASC_NODE": 30.2184, "ARG_OF_PERICENTER": 199.3234, "MEAN_ANOMALY": 160.7137, "EPHEMERIS_TYPE": 0, "CLASSIFICATION_TYPE": "U", "NORAD_CAT_ID": 41885, "ELEMENT_SET_NO": 999, "REV_AT_EPOCH": 49974, "BSTAR": 0.00063588717, "MEAN_MOTION_DOT": 0.00037316, "MEAN_MOTION_DDOT": 0}, "tle": {"line1": "1 41885U 16078B   25345.47303778  .00037316  00000+0  63589-3 0  9999", "line2": "2 41885  34.9354  30.2184 0009290 199.3234 160.7137 15.50277122499745"}}, "geometry": {"type": "Point", "coordinates": [162.83017276705164, 25.981205921301868]}}, {"type": "Feature", "properties": {"norad_id": 41886, "name": "CYGFM02", "group": "weather", "lat": 21.992528174199233, "lon": 170.1071733755373, "alt_km": 404.19003812158644, "timestamp": "2025-12-11T22:43:46.913370+00:00", "meta": {"OBJECT_NAME": "CYGFM02", "OBJECT_ID": "2016-078C", "EPOCH": "2025-12-11T11:19:26.384160", "MEAN_MOTION": 15.51650862, "ECCENTRICITY": 0.00109769, "INCLINATION": 34.9444, "RA_OF_ASC_NODE": 28.569, "ARG_OF_PERICENTER": 198.8221, "MEAN_ANOMALY": 161.2096, "EPHEMERIS_TYPE": 0, "CLASSIFICATION_TYPE": "U", "NORAD_CAT_ID": 41886, "ELEMENT_SET_NO": 999, "REV_AT_EPOCH": 49987, "BSTAR": 0.00064646241, "MEAN_MOTION_DOT": 0.00039891, "MEAN_MOTION_DDOT": 0}, "tle": {"line1": "1 41886U 16078C   25345.47183315  .00039891  00000+0  64646-3 0  9998", "line2": "2 41886  34.9444  28.5690 0010976 198.8221 161.2096 15.51650862499872"}}, "geometry": {"type": "Point", "coordinates": [170.1071733755373, 21.992528174199233]}}, {"type": "Feature", "properties": {"norad_id": 41887, "name": "CYGFM01", "group": "weather", "lat": -29.34025037743889, "lon": 1.0510345281078226, "alt_km": 428.2821619715487, "timestamp": "2025-12-11T22:43:46.913381+00:00", "meta": {"OBJECT_NAME": "CYGFM01", "OBJECT_ID": "2016-078D", "EPOCH": "2025-12-11T13:41:51.421056", "MEAN_MOTION": 15.48144651, "ECCENTRICITY": 0.00094971, "INCLINATION": 34.9432, "RA_OF_ASC_NODE": 57.1248, "ARG_OF_PERICENTER": 164.4274, "MEAN_ANOMALY": 195.6741, "EPHEMERIS_TYPE": 0, "CLASSIFICATION_TYPE": "U", "NORAD_CAT_ID": 41887, "ELEMENT_SET_NO": 999, "REV_AT_EPOCH": 49952, "BSTAR": 0.00049978475, "MEAN_MOTION_DOT": 0.00027156, "MEAN_MOTION_DDOT": 0}, "tle": {"line1": "1 41887U 16078D   25345.57073404  .00027156  00000+0  49978-3 0  9999", "line2": "2 41887  34.9432  57.1248 0009497 164.4274 195.6741 15.48144651499520"}}, "geometry": {"type": "Point", "coordinates": [1.0510345281078226, -29.34025037743889]}}, {"type": "Feature", "properties": {"norad_id": 41888, "name": "CYGFM08", "group": "weather", "lat": -7.933720714088706, "lon": 26.15371268215426, "alt_km": 425.34780646478066, "timestamp": "2025-12-11T22:43:46.913392+00:00", "meta": {"OBJECT_NAME": "CYGFM08", "OBJECT_ID": "2016-078E", "EPOCH": "2025-12-11T11:57:53.666784", "MEAN_MOTION": 15.49345459, "ECCENTRICITY": 0.00113806, "INCLINATION": 34.9463, "RA_OF_ASC_NODE": 40.6034, "ARG_OF_PERICENTER": 187.8178, "MEAN_ANOMALY": 172.2368, "EPHEMERIS_TYPE": 0, "CLASSIFICATION_TYPE": "U", "NORAD_CAT_ID": 41888, "ELEMENT_SET_NO": 999, "REV_AT_EPOCH": 49974, "BSTAR": 0.00063122143, "MEAN_MOTION_DOT": 0.00035861, "MEAN_MOTION_DDOT": 0}, "tle": {"line1": "1 41888U 16078E   25345.49853781  .00035861  00000+0  63122-3 0  9994", "line2": "2 41888  34.9463  40.6034 0011380 187.8178 172.2368 15.49345459499741"}}, "geometry": {"type": "Point", "coordinates": [26.15371268215426, -7.933720714088706]}}, {"type": "Feature", "properties": {"norad_id": 41890, "name": "CYGFM07", "group": "weather", "lat": -15.518568065927655, "lon": 3.2221024630091115, "alt_km": 421.06329186473613, "timestamp": "2025-12-11T22:43:46.913403+00:00", "meta": {"OBJECT_NAME": "CYGFM07", "OBJECT_ID": "2016-078G", "EPOCH": "2025-12-11T12:01:43.381056", "MEAN_MOTION": 15.49925306, "ECCENTRICITY": 0.00097414, "INCLINATION": 34.9484, "RA_OF_ASC_NODE": 29.5736, "ARG_OF_PERICENTER": 205.3606, "MEAN_ANOMALY": 154.6639, "EPHEMERIS_TYPE": 0, "CLASSIFICATION_TYPE": "U", "NORAD_CAT_ID": 41890, "ELEMENT_SET_NO": 999, "REV_AT_EPOCH": 49976, "BSTAR": 0.00063492627, "MEAN_MOTION_DOT": 0.00036799, "MEAN_MOTION_DDOT": 0}, "tle": {"line1": "1 41890U 16078G   25345.50119654  .00036799  00000+0  63493-3 0  9995", "line2": "2 41890  34.9484  29.5736 0009741 205.3606 154.6639 15.49925306499764"}}, "geometry": {"type": "Point", "coordinates": [3.2221024630091115, -15.518568065927655]}}, {"type": "Feature", "properties": {"norad_id": 41891, "name": "CYGFM03", "group": "weather", "lat": 7.320887570297965, "lon": -162.03403781361945, "alt_km": 409.66136117856695, "timestamp": "2025-12-11T22:43:46.913413+00:00", "meta": {"OBJECT_NAME": "CYGFM03", "OBJECT_ID": "2016-078H", "EPOCH": "2025-12-11T11:11:26.566080", "MEAN_MOTION": 15.49822944, "ECCENTRICITY": 0.00091164, "INCLINATION": 34.9435, "RA_OF_ASC_NODE": 31.7202, "ARG_OF_PERICENTER": 192.4174, "MEAN_ANOMALY": 167.6324, "EPHEMERIS_TYPE": 0, "CLASSIFICATION_TYPE": "U", "NORAD_CAT_ID": 41891, "ELEMENT_SET_NO": 999, "REV_AT_EPOCH": 49973, "BSTAR": 0.00063877072, "MEAN_MOTION_DOT": 0.0003688, "MEAN_MOTION_DDOT": 0}, "tle": {"line1": "1 41891U 16078H   25345.46627970  .00036880  00000+0  63877-3 0  9993", "line2": "2 41891  34.9435  31.7202 0009116 192.4174 167.6324 15.49822944499732"}}, "geometry": {"type": "Point", "coordinates": [-162.03403781361945, 7.320887570297965]}}]}